CCSDS_OMM_VERS = 2.0
CREATION_DATE  = 
ORIGINATOR     = 

OBJECT_NAME    = STARLINK-36570
OBJECT_ID      = 2026-020Z
CENTER_NAME    = EARTH
REF_FRAME      = TEME
TIME_SYSTEM    = UTC
MEAN_ELEMENT_THEORY = SGP/SGP4

EPOCH          = 2026-02-15T12:00:01.999296
MEAN_MOTION    = 15.76398984
ECCENTRICITY   = .0002126
INCLINATION    = 42.9982
RA_OF_ASC_NODE = 276.8000
ARG_OF_PERICENTER = 261.1200
MEAN_ANOMALY   = 203.5114

EPHEMERIS_TYPE = 0
CLASSIFICATION_TYPE = U
NORAD_CAT_ID   = 67640
ELEMENT_SET_NO = 999
REV_AT_EPOCH   = 382
BSTAR          = -.6304E-3
MEAN_MOTION_DOT = -.102073E-2
MEAN_MOTION_DDOT = 0

CCSDS_OMM_VERS = 2.0
CREATION_DATE  = 
ORIGINATOR     = 

OBJECT_NAME    = STARLINK-36514
OBJECT_ID      = 2026-020AA
CENTER_NAME    = EARTH
REF_FRAME      = TEME
TIME_SYSTEM    = UTC
MEAN_ELEMENT_THEORY = SGP/SGP4

EPOCH          = 2026-02-15T12:44:54.580992
MEAN_MOTION    = 15.82309708
ECCENTRICITY   = .000303
INCLINATION    = 42.9968
RA_OF_ASC_NODE = 276.4156
ARG_OF_PERICENTER = 235.5540
MEAN_ANOMALY   = 124.5046

EPHEMERIS_TYPE = 0
CLASSIFICATION_TYPE = U
NORAD_CAT_ID   = 67641
ELEMENT_SET_NO = 999
REV_AT_EPOCH   = 259
BSTAR          = .23517E-2
MEAN_MOTION_DOT = .533687E-2
MEAN_MOTION_DDOT = 0

CCSDS_OMM_VERS = 2.0
CREATION_DATE  = 
ORIGINATOR     = 

OBJECT_NAME    = STARLINK-36556
OBJECT_ID      = 2026-020AB
CENTER_NAME    = EARTH
REF_FRAME      = TEME
TIME_SYSTEM    = UTC
MEAN_ELEMENT_THEORY = SGP/SGP4

EPOCH          = 2026-02-14T21:35:48.513120
MEAN_MOTION    = 15.81195695
ECCENTRICITY   = .00009655
INCLINATION    = 42.9973
RA_OF_ASC_NODE = 280.2837
ARG_OF_PERICENTER = 131.0329
MEAN_ANOMALY   = 229.0626

EPHEMERIS_TYPE = 0
CLASSIFICATION_TYPE = U
NORAD_CAT_ID   = 67642
ELEMENT_SET_NO = 999
REV_AT_EPOCH   = 249
BSTAR          = .20882971E-2
MEAN_MOTION_DOT = .44532E-2
MEAN_MOTION_DDOT = 0

CCSDS_OMM_VERS = 2.0
CREATION_DATE  = 
ORIGINATOR     = 

OBJECT_NAME    = STARLINK-36533
OBJECT_ID      = 2026-020AC
CENTER_NAME    = EARTH
REF_FRAME      = TEME
TIME_SYSTEM    = UTC
MEAN_ELEMENT_THEORY = SGP/SGP4

EPOCH          = 2026-02-15T02:29:16.318176
MEAN_MOTION    = 15.76413120
ECCENTRICITY   = .00020547
INCLINATION    = 42.9978
RA_OF_ASC_NODE = 279.2400
ARG_OF_PERICENTER = 265.0903
MEAN_ANOMALY   = 94.9733

EPHEMERIS_TYPE = 0
CLASSIFICATION_TYPE = U
NORAD_CAT_ID   = 67643
ELEMENT_SET_NO = 999
REV_AT_EPOCH   = 252
BSTAR          = .12963467E-2
MEAN_MOTION_DOT = .216542E-2
MEAN_MOTION_DDOT = 0

CCSDS_OMM_VERS = 2.0
CREATION_DATE  = 
ORIGINATOR     = 

OBJECT_NAME    = STARLINK-36623
OBJECT_ID      = 2026-020AD
CENTER_NAME    = EARTH
REF_FRAME      = TEME
TIME_SYSTEM    = UTC
MEAN_ELEMENT_THEORY = SGP/SGP4

EPOCH          = 2026-02-15T12:00:01.999296
MEAN_MOTION    = 15.76387641
ECCENTRICITY   = .0002013
INCLINATION    = 42.9982
RA_OF_ASC_NODE = 276.7357
ARG_OF_PERICENTER = 249.3438
MEAN_ANOMALY   = 240.1208

EPHEMERIS_TYPE = 0
CLASSIFICATION_TYPE = U
NORAD_CAT_ID   = 67644
ELEMENT_SET_NO = 999
REV_AT_EPOCH   = 382
BSTAR          = -.31076E-3
MEAN_MOTION_DOT = -.50841E-3
MEAN_MOTION_DDOT = 0

CCSDS_OMM_VERS = 2.0
CREATION_DATE  = 
ORIGINATOR     = 

OBJECT_NAME    = STARLINK-36619
OBJECT_ID      = 2026-020AE
CENTER_NAME    = EARTH
REF_FRAME      = TEME
TIME_SYSTEM    = UTC
MEAN_ELEMENT_THEORY = SGP/SGP4

EPOCH          = 2026-02-15T12:00:01.999296
MEAN_MOTION    = 15.76398280
ECCENTRICITY   = .0001799
INCLINATION    = 42.9983
RA_OF_ASC_NODE = 276.7050
ARG_OF_PERICENTER = 267.5178
MEAN_ANOMALY   = 234.4428

EPHEMERIS_TYPE = 0
CLASSIFICATION_TYPE = U
NORAD_CAT_ID   = 67645
ELEMENT_SET_NO = 999
REV_AT_EPOCH   = 382
BSTAR          = -.48718E-3
MEAN_MOTION_DOT = -.79198E-3
MEAN_MOTION_DDOT = 0

CCSDS_OMM_VERS = 2.0
CREATION_DATE  = 
ORIGINATOR     = 

OBJECT_NAME    = ALSAT-3B
OBJECT_ID      = 2026-021A
CENTER_NAME    = EARTH
REF_FRAME      = TEME
TIME_SYSTEM    = UTC
MEAN_ELEMENT_THEORY = SGP/SGP4

EPOCH          = 2026-02-15T12:21:38.640384
MEAN_MOTION    = 15.23607411
ECCENTRICITY   = .0012047
INCLINATION    = 97.4718
RA_OF_ASC_NODE = 120.9475
ARG_OF_PERICENTER = 207.5188
MEAN_ANOMALY   = 152.5412

EPHEMERIS_TYPE = 0
CLASSIFICATION_TYPE = U
NORAD_CAT_ID   = 67646
ELEMENT_SET_NO = 999
REV_AT_EPOCH   = 234
BSTAR          = .34147E-3
MEAN_MOTION_DOT = .8121E-4
MEAN_MOTION_DDOT = 0

CCSDS_OMM_VERS = 2.0
CREATION_DATE  = 
ORIGINATOR     = 

OBJECT_NAME    = CZ-2C R/B
OBJECT_ID      = 2026-021B
CENTER_NAME    = EARTH
REF_FRAME      = TEME
TIME_SYSTEM    = UTC
MEAN_ELEMENT_THEORY = SGP/SGP4

EPOCH          = 2026-02-15T12:25:59.361888
MEAN_MOTION    = 15.23478537
ECCENTRICITY   = .0153633
INCLINATION    = 97.6558
RA_OF_ASC_NODE = 121.5404
ARG_OF_PERICENTER = 88.2902
MEAN_ANOMALY   = 273.5924

EPHEMERIS_TYPE = 0
CLASSIFICATION_TYPE = U
NORAD_CAT_ID   = 67647
ELEMENT_SET_NO = 999
REV_AT_EPOCH   = 232
BSTAR          = .47113E-3
MEAN_MOTION_DOT = .15625E-3
MEAN_MOTION_DDOT = 0

CCSDS_OMM_VERS = 2.0
CREATION_DATE  = 
ORIGINATOR     = 

OBJECT_NAME    = STARLINK-36719
OBJECT_ID      = 2026-022A
CENTER_NAME    = EARTH
REF_FRAME      = TEME
TIME_SYSTEM    = UTC
MEAN_ELEMENT_THEORY = SGP/SGP4

EPOCH          = 2026-02-15T12:00:01.999296
MEAN_MOTION    = 15.75418035
ECCENTRICITY   = .0001266
INCLINATION    = 97.2838
RA_OF_ASC_NODE = 79.3709
ARG_OF_PERICENTER = 95.6223
MEAN_ANOMALY   = 312.4169

EPHEMERIS_TYPE = 0
CLASSIFICATION_TYPE = U
NORAD_CAT_ID   = 67648
ELEMENT_SET_NO = 999
REV_AT_EPOCH   = 332
BSTAR          = -.22038E-2
MEAN_MOTION_DOT = -.32E-2
MEAN_MOTION_DDOT = 0

CCSDS_OMM_VERS = 2.0
CREATION_DATE  = 
ORIGINATOR     = 

OBJECT_NAME    = STARLINK-36342
OBJECT_ID      = 2026-022B
CENTER_NAME    = EARTH
REF_FRAME      = TEME
TIME_SYSTEM    = UTC
MEAN_ELEMENT_THEORY = SGP/SGP4

EPOCH          = 2026-02-15T12:00:01.999296
MEAN_MOTION    = 15.75363077
ECCENTRICITY   = .0001098
INCLINATION    = 97.2837
RA_OF_ASC_NODE = 79.3721
ARG_OF_PERICENTER = 103.2931
MEAN_ANOMALY   = 308.7781

EPHEMERIS_TYPE = 0
CLASSIFICATION_TYPE = U
NORAD_CAT_ID   = 67649
ELEMENT_SET_NO = 999
REV_AT_EPOCH   = 332
BSTAR          = -.16495E-2
MEAN_MOTION_DOT = -.241153E-2
MEAN_MOTION_DDOT = 0

CCSDS_OMM_VERS = 2.0
CREATION_DATE  = 
ORIGINATOR     = 

OBJECT_NAME    = STARLINK-36703
OBJECT_ID      = 2026-022C
CENTER_NAME    = EARTH
REF_FRAME      = TEME
TIME_SYSTEM    = UTC
MEAN_ELEMENT_THEORY = SGP/SGP4

EPOCH          = 2026-02-15T12:00:01.999296
MEAN_MOTION    = 15.75468168
ECCENTRICITY   = .0001394
INCLINATION    = 97.2837
RA_OF_ASC_NODE = 79.3745
ARG_OF_PERICENTER = 100.8150
MEAN_ANOMALY   = 317.2000

EPHEMERIS_TYPE = 0
CLASSIFICATION_TYPE = U
NORAD_CAT_ID   = 67650
ELEMENT_SET_NO = 999
REV_AT_EPOCH   = 332
BSTAR          = -.27822E-2
MEAN_MOTION_DOT = -.401065E-2
MEAN_MOTION_DDOT = 0

CCSDS_OMM_VERS = 2.0
CREATION_DATE  = 
ORIGINATOR     = 

OBJECT_NAME    = STARLINK-36696
OBJECT_ID      = 2026-022D
CENTER_NAME    = EARTH
REF_FRAME      = TEME
TIME_SYSTEM    = UTC
MEAN_ELEMENT_THEORY = SGP/SGP4

EPOCH          = 2026-02-15T12:00:01.999296
MEAN_MOTION    = 15.76631956
ECCENTRICITY   = .0001617
INCLINATION    = 97.2831
RA_OF_ASC_NODE = 79.3784
ARG_OF_PERICENTER = 87.1860
MEAN_ANOMALY   = 339.9427

EPHEMERIS_TYPE = 0
CLASSIFICATION_TYPE = U
NORAD_CAT_ID   = 67651
ELEMENT_SET_NO = 999
REV_AT_EPOCH   = 332
BSTAR          = -.1132E-1
MEAN_MOTION_DOT = -.1573805E-1
MEAN_MOTION_DDOT = 0

