STARLINK-36570          
1 67640U 26020Z   26046.50002314 -.00102073  00000+0 -63040-3 0  9996
2 67640  42.9982 276.8000 0002126 261.1200 203.5114 15.76398984  3824
STARLINK-36514          
1 67641U 26020AA  26046.53118728  .00533687  00000+0  23517-2 0  9998
2 67641  42.9968 276.4156 0003030 235.5540 124.5046 15.82309708  2596
STARLINK-36556          
1 67642U 26020AB  26045.89986705  .00445320  00000+0  20883-2 0  9994
2 67642  42.9973 280.2837 0000965 131.0329 229.0626 15.81195695  2492
STARLINK-36533          
1 67643U 26020AC  26046.10366109  .00216542  00000+0  12963-2 0  9992
2 67643  42.9978 279.2400 0002054 265.0903  94.9733 15.76413120  2521
STARLINK-36623          
1 67644U 26020AD  26046.50002314 -.00050841  00000+0 -31076-3 0  9999
2 67644  42.9982 276.7357 0002013 249.3438 240.1208 15.76387641  3827
STARLINK-36619          
1 67645U 26020AE  26046.50002314 -.00079198  00000+0 -48718-3 0  9997
2 67645  42.9983 276.7050 0001799 267.5178 234.4428 15.76398280  3823
ALSAT-3B                
1 67646U 26021A   26046.51503056  .00008121  00000+0  34147-3 0  9996
2 67646  97.4718 120.9475 0012047 207.5188 152.5412 15.23607411  2349
CZ-2C R/B               
1 67647U 26021B   26046.51804817  .00015625  00000+0  47113-3 0  9990
2 67647  97.6558 121.5404 0153633  88.2902 273.5924 15.23478537  2323
STARLINK-36719          
1 67648U 26022A   26046.50002314 -.00320000  00000+0 -22038-2 0  9999
2 67648  97.2838  79.3709 0001266  95.6223 312.4169 15.75418035  3320
STARLINK-36342          
1 67649U 26022B   26046.50002314 -.00241153  00000+0 -16495-2 0  9991
2 67649  97.2837  79.3721 0001098 103.2931 308.7781 15.75363077  3322
STARLINK-36703          
1 67650U 26022C   26046.50002314 -.00401065  00000+0 -27822-2 0  9999
2 67650  97.2837  79.3745 0001394 100.8150 317.2000 15.75468168  3321
STARLINK-36696          
1 67651U 26022D   26046.50002314 -.01573805  00000+0 -11320-1 0  9998
2 67651  97.2831  79.3784 0001617  87.1860 339.9427 15.76631956  3324
